[{"OBJECT_NAME":"STARLINK-30592","OBJECT_ID":"2023-161F","EPOCH":"2026-03-09T13:24:35.224128","MEAN_MOTION":15.30182666,"ECCENTRICITY":0.0001124,"INCLINATION":53.1603,"RA_OF_ASC_NODE":165.9946,"ARG_OF_PERICENTER":86.1642,"MEAN_ANOMALY":273.9487,"EPHEMERIS_TYPE":0,"CLASSIFICATION_TYPE":"U","NORAD_CAT_ID":58102,"ELEMENT_SET_NO":999,"REV_AT_EPOCH":13440,"BSTAR":-2.526e-5,"MEAN_MOTION_DOT":-1.107e-5,"MEAN_MOTION_DDOT":0},{"OBJECT_NAME":"FENGYUN 1C DEB","OBJECT_ID":"1999-025CMP","EPOCH":"2026-03-08T08:37:00.789888","MEAN_MOTION":14.96815474,"ECCENTRICITY":0.01497126,"INCLINATION":98.9176,"RA_OF_ASC_NODE":115.7276,"ARG_OF_PERICENTER":148.4975,"MEAN_ANOMALY":212.5316,"EPHEMERIS_TYPE":0,"CLASSIFICATION_TYPE":"U","NORAD_CAT_ID":31938,"ELEMENT_SET_NO":999,"REV_AT_EPOCH":409,"BSTAR":0.00073670691,"MEAN_MOTION_DOT":0.00010536,"MEAN_MOTION_DDOT":0}]
